County,City,ID,Site Name,Address
Delta,Delta,CO1677,Sherwin-Williams,1410 Valley View Dr
Delta,Hotchkiss,CO1164,Ace Gambles of Hotchkiss,121 E Bridge St
Denver,Denver,CO1009,Ace Hardware on The Fax,7100 E Colfax Ave
Denver,Denver,CO1309,Colorado Paint Company,4747 Holly St
Denver,Denver,CO1539,Diamond Vogel,4500 E 48th Ave
Denver,Denver,CO1360,Guirys Paint and Wallpaper,2121 S Colorado Blvd
Denver,Denver,CO1362,Guirys Paint and Wallpaper,2245 Market St
Denver,Denver,CO1567,Guirys Paint and Wallpaper,5475 Leetsdale Dr
Denver,Denver,CO1341,Kwal Paint,1441 W Bayaud
Denver,Denver,CO1529,Old Western Paint,2001 W Barberry Pl
Denver,Denver,CO2005,PPG Paints,1134 West Evans Ave
Denver,Denver,CO1298,PPG Paints,657 Osage St
Denver,Denver,CO1062,Sherwin-Williams,4697 E Evans Ave
Denver,Denver,CO1064,Sherwin-Williams,5240 E Colfax Ave
Denver,Denver,CO1063,Sherwin-Williams,5315 W 38th Ave
Denver,Denver,CO1085,Sherwin-Williams,543 Santa Fe Dr
Douglas,Castle Rock,CO1078,Sherwin-Williams,175 Plum Creek Pkwy
Douglas,Highlands Ranch,CO1071 Sherwin-Williams,,1265 Sgt Jon Stiles Dr
Douglas,Lone Tree,CO1069 Sherwin-Williams,,7580 Park Meadows Dr
Douglas,Parker,CO1372 Guirys Paint and Wallpaper,,16534 Keystone Blvd
Douglas,Parker,CO1355 Kwal Paint,,18403 E Longs Way
Douglas,Parker,CO1096 Sherwin-Williams,,10155 S Parker Rd
Eagle,Vail,CO1197 Vail Valley Ace Hardware,,2111 N Frontage Rd W
El Paso,Colorado Springs,CO1542 Diamond Vogel,,5691 N Academy Blvd
El Paso,Colorado Springs,CO1658 Kwal Paint,,260 S Academy Blvd
El Paso,Colorado Springs,CO1660 Kwal Paint,,2939 N Hancock Ave
El Paso,Colorado Springs,CO1659 Kwal Paint,,6345 Source Center Point
El Paso,Colorado Springs,CO1297 PPG Paints,,275 N Chelton Rd
Fremont,Canon City,CO1077 Sherwin-Williams,,1015 Main St
Fremont,Canon City,CO1090 Sonnys Ace Home Center,,3090 E Main St
Garfield,Glenwood Springs,CO2002,Big Johns Ace Hardware,2602 S Glen Ave
Garfield,Glenwood Springs,CO1608,Roaring Fork Valley ReStore,7025 Highway 82
Garfield,Glenwood Springs,CO2033,Sherwin-Williams,3228-B South Glen Ave
Grand,Fraser,CO1151,Fraser Valley Ace Hardware,425 Zerex St
Grand,Granby,CO1154,Country Ace Hardware,627 W Agate Ave
Grand,Kremmling,CO1166,Tri River Ace Hardware,720 Tyler Ave
Gunnison,Gunnison,CO1673 Sherwin-Williams,,821-A N Main St
Jefferson,Arvada,CO1339 Kwal Paint,,5220 Wadsworth Bypass
Jefferson,Arvada,CO2019 Sherwin-Williams,,7731 Wadsworth Blvd
Jefferson,Conifer,CO1120 Aspen Park Hardware,,26572 Barkley Rd
Jefferson,Edgewater,CO1016 Edgewater Ace Hardware,,1719 Sheridan Blvd
Jefferson,Evergreen,CO1087 Sherwin-Williams,,1002 Swede Gulch Rd
Jefferson,Golden,CO1853 Jefferson County HHW,,151 S Rooney Rd
Larimer,Fort Collins,CO1144 Clays Ace Hardware,,1001 E Harmony Rd
Larimer,Fort Collins,CO1146 Downtown Ace Hardware,,215 S College Ave
Larimer,Fort Collins,CO1838 Larimer County Solid Waste,,5887 S Taft Hill Rd
Larimer,Loveland,CO1535 Diamond Vogel,,3206 N Garfield Ave
Larimer,Loveland,CO1664 Kwal Paint,,1390 S Cleveland Ave
Larimer,Loveland,CO1179 Orchards Ace Hardware,,269 E 29th St
Larimer,Loveland,CO1094 Sherwin-Williams,,2033 W Eisenhower Blvd
Las Animas,Trinidad,CO1480 Terra Firma Recycling,,201 W Indiana Ave
Las Animas,Trinidad,CO1610 Trinidad Builders Supply,,108 W Colorado Ave
Logan,Sterling,CO2008 Sherwin-Williams,,100 Broadway St
Mesa,Fruita,CO1152 Co Op Country,,1650 Highway 6 and 50
Mesa,Grand Junction,CO1156 Ace Hardware of Clifton,,569 32 Rd Unit 4
Mesa,Grand Junction,CO1532 Diamond Vogel,,2991 North Ave
Mesa,Grand Junction,CO2000 Kwal Paint,,2801 North Ave
